MEAN_MOTION;ECCENTRICITY;INCLINATION;RA_OF_ASC_NODE;ARG_OF_PERICENTER;MEAN_ANOMALY;BSTAR;MEAN_MOTION_DOT;MEAN_MOTION_DDOT;TYPE
14.29635813;0.0046931;107.9943;146.4656;254.0411;105.5552;7.4173E-5;6.0E-7;0;Orbcomm
14.29635903;0.0046932;107.9942;146.8941;253.6919;105.9054;7.4021E-5;6.0E-7;0;Orbcomm
14.29636188;0.0046943;107.9941;148.4651;252.4142;107.1864;7.4014E-5;6.0E-7;0;Orbcomm
14.29636579;0.0046944;107.9939;150.3218;250.8954;108.7096;7.6767E-5;6.7E-7;0;Orbcomm
14.29636603;0.0046944;107.9939;150.6074;250.6658;108.9399;7.5481E-5;6.4E-7;0;Orbcomm
14.29636694;0.0046943;107.9939;151.0358;250.3152;109.2917;7.5648E-5;6.4E-7;0;Orbcomm
14.29636889;0.0046944;107.9938;152.0356;249.5075;110.1019;7.5699E-5;6.4E-7;0;Orbcomm
14.29637058;0.0046946;107.9937;153.0353;248.6942;110.9179;7.513E-5;6.3E-7;0;Orbcomm
14.29637261;0.0046948;107.9936;154.1779;247.7658;111.8495;7.4073E-5;6.0E-7;0;Orbcomm
14.29637647;0.0046922;107.9935;156.1774;246.1185;113.5031;7.4628E-5;6.1E-7;0;Orbcomm
14.29638112;0.0046928;107.9933;158.3196;244.379;115.2494;7.7967E-5;7.0E-7;0;Orbcomm
14.29638176;0.0046931;107.9933;158.7481;244.0326;115.5972;7.7677E-5;6.9E-7;0;Orbcomm
14.29638598;0.0046944;107.9931;160.6045;242.5444;117.0915;7.9884E-5;7.5E-7;0;Orbcomm
14.29638618;0.0046945;107.9931;160.7474;242.4283;117.208;7.95E-5;7.4E-7;0;Orbcomm
14.29638972;0.0046936;107.993;162.747;240.8083;118.8353;7.6204E-5;6.6E-7;0;Orbcomm
14.29639099;0.0046938;107.9929;163.3182;240.3442;119.3016;7.6544E-5;6.6E-7;0;Orbcomm
14.29639347;0.0046932;107.9928;164.7463;239.1856;120.4658;7.5693E-5;6.4E-7;0;Orbcomm
14.29639519;0.0046931;107.9927;165.8888;238.2544;121.4015;7.0606E-5;5.1E-7;0;Orbcomm
14.29639725;0.0046925;107.9927;166.8885;237.4416;122.2184;7.2053E-5;5.5E-7;0;Orbcomm
14.29639921;0.0046916;107.9926;168.031;236.5079;123.157;7.1101E-5;5.2E-7;0;Orbcomm
14.29640046;0.0046911;107.9926;168.8878;235.814;123.8545;6.9955E-5;4.9E-7;0;Orbcomm
14.29640317;0.0046903;107.9925;170.1731;234.7674;124.9068;7.2096E-5;5.5E-7;0;Orbcomm
14.29640426;0.0046901;107.9925;170.8872;234.1884;125.489;7.1785E-5;5.4E-7;0;Orbcomm
14.29640658;0.0046896;107.9924;172.0297;233.2576;126.4249;7.2813E-5;5.7E-7;0;Orbcomm
14.29640854;0.0046887;107.9924;173.0293;232.446;127.2412;7.373E-5;5.9E-7;0;Orbcomm
14.29641028;0.0046885;107.9924;173.6005;231.9788;127.7112;7.7194E-5;6.8E-7;0;Orbcomm
14.29641366;0.0046867;107.9923;175.0286;230.8118;128.8851;8.1849E-5;8.0E-7;0;Orbcomm
14.2964173;0.0046859;107.9923;176.8852;229.2981;130.408;8.1811E-5;8.0E-7;0;Orbcomm
14.29641765;0.0046857;107.9923;177.028;229.1815;130.5254;8.2478E-5;8.2E-7;0;Orbcomm
14.29642089;0.0046832;107.9922;179.0273;227.5538;132.1635;7.7684E-5;6.9E-7;0;Orbcomm
14.29642097;0.0046828;107.9922;179.1701;227.4372;132.2808;7.6446E-5;6.6E-7;0;Orbcomm
14.29642479;0.0046811;107.9922;181.1694;225.8121;133.9165;7.6159E-5;6.5E-7;0;Orbcomm
14.29642579;0.0046807;107.9922;181.7406;225.3473;134.3843;7.4973E-5;6.2E-7;0;Orbcomm
14.29642823;0.0046787;107.9922;183.1686;224.1863;135.5532;7.3824E-5;5.9E-7;0;Orbcomm
14.29643247;0.0046766;107.9921;185.025;222.6702;137.0799;7.7972E-5;7.0E-7;0;Orbcomm
14.29643269;0.0046765;107.9921;185.1678;222.5546;137.1963;7.8404E-5;7.1E-7;0;Orbcomm
14.29643777;0.0046737;107.9921;187.1671;220.9198;138.8426;8.5232E-5;8.9E-7;0;Orbcomm
14.29643817;0.0046736;107.9921;187.3099;220.8048;138.9585;8.6481E-5;9.2E-7;0;Orbcomm
14.29644159;0.004672;107.9921;188.5951;219.7527;140.0182;8.9944E-5;1.01E-6;0;Orbcomm
14.29644327;0.004671;107.9921;189.3091;219.1771;140.5981;9.1421E-5;1.05E-6;0;Orbcomm
14.29644487;0.0046704;107.992;189.8803;218.7113;141.0673;9.3233E-5;1.1E-6;0;Orbcomm
14.2964472;0.0046692;107.992;190.5943;218.1197;141.6634;9.7507E-5;1.21E-6;0;Orbcomm
14.29644876;0.0046683;107.992;191.3084;217.5358;142.2516;9.6901E-5;1.19E-6;0;Orbcomm
14.2964537;0.0046657;107.992;193.1648;216.0135;143.7855;9.9241E-5;1.25E-6;0;Orbcomm
14.29645426;0.0046653;107.992;193.4504;215.7801;144.0206;9.9277E-5;1.26E-6;0;Orbcomm
14.29645924;0.0046629;107.992;195.4497;214.1485;145.6649;9.8886E-5;1.25E-6;0;Orbcomm
14.29646435;0.00466;107.992;197.449;212.5125;147.3139;9.8498E-5;1.24E-6;0;Orbcomm
14.296466;0.0046593;107.992;198.0202;212.0482;147.7819;9.9321E-5;1.26E-6;0;Orbcomm
14.29646986;0.004657;107.992;199.4483;210.8791;148.9605;0.00010086;1.3E-6;0;Orbcomm
14.29647185;0.0046564;107.992;200.1623;210.2984;149.5459;0.00010193;1.32E-6;0;Orbcomm
14.29647528;0.0046542;107.992;201.5904;209.1292;150.7247;0.00010099;1.3E-6;0;Orbcomm
14.29648002;0.0046512;107.9921;203.4468;207.5931;152.2735;9.948E-5;1.26E-6;0;Orbcomm
14.29648036;0.004651;107.9921;203.5896;207.4771;152.3905;9.9849E-5;1.27E-6;0;Orbcomm
14.29648606;0.0046471;107.9921;205.5886;205.8302;154.0514;0.00010134;1.31E-6;0;Orbcomm
14.29648754;0.0046454;107.992;206.1598;205.3666;154.519;0.00010085;1.3E-6;0;Orbcomm
14.29649245;0.0046417;107.9921;207.7307;204.0688;155.8279;0.00010451;1.39E-6;0;Orbcomm
14.29649424;0.0046409;107.9921;208.3019;203.602;156.2988;0.00010484;1.4E-6;0;Orbcomm
14.296498;0.0046384;107.9922;209.73;202.4199;157.491;0.00010355;1.37E-6;0;Orbcomm
14.29650287;0.0046329;107.9922;211.7294;200.7869;159.1384;0.00010061;1.29E-6;0;Orbcomm
14.29650781;0.0046283;107.9923;213.8715;199.0368;160.904;9.7749E-5;1.22E-6;0;Orbcomm
14.29651118;0.0046235;107.9924;215.5852;197.6006;162.353;9.2167E-5;1.07E-6;0;Orbcomm
14.29651231;0.0046239;107.9925;216.442;196.897;163.0629;8.676E-5;9.3E-7;0;Orbcomm
14.29651597;0.0046191;107.9926;217.8703;195.7234;164.2471;8.9393E-5;1.0E-6;0;Orbcomm
14.29652101;0.0046159;107.9927;219.7269;194.1779;165.8064;9.3022E-5;1.09E-6;0;Orbcomm
14.2965214;0.004615;107.9927;219.8698;194.0601;165.9253;9.3945E-5;1.12E-6;0;Orbcomm
14.29652657;0.0046121;107.9929;221.8693;192.4007;167.5997;9.557E-5;1.16E-6;0;Orbcomm
14.29652663;0.0046122;107.9928;222.0121;192.2815;167.72;9.4623E-5;1.14E-6;0;Orbcomm
14.29653152;0.0046074;107.9929;224.0114;190.6327;169.3839;9.5905E-5;1.17E-6;0;Orbcomm
14.29653291;0.0046057;107.9929;224.5826;190.1635;169.8575;9.6518E-5;1.18E-6;0;Orbcomm
14.29653339;0.0046052;107.9929;224.7255;190.0493;169.9727;9.7025E-5;1.2E-6;0;Orbcomm
14.2965358;0.0046008;107.993;226.0108;189.0092;171.0223;9.4049E-5;1.12E-6;0;Orbcomm
14.29653726;0.0045989;107.9931;226.7249;188.4027;171.6343;9.2992E-5;1.09E-6;0;Orbcomm
14.2965406;0.0045952;107.9932;228.7243;186.7335;173.3189;8.614E-5;9.2E-7;0;Orbcomm
14.29654285;0.0045931;107.9932;229.8667;185.7649;174.2964;8.4365E-5;8.7E-7;0;Orbcomm
14.2965428;0.0045924;107.9932;230.1523;185.5235;174.54;8.2663E-5;8.2E-7;0;Orbcomm
14.29654608;0.0045869;107.9933;232.0089;183.9894;176.0882;7.9016E-5;7.3E-7;0;Orbcomm
14.29654636;0.0045868;107.9933;232.1517;183.8683;176.2104;7.9485E-5;7.4E-7;0;Orbcomm
14.2965508;0.0045827;107.9935;234.1512;182.2018;177.8923;8.0155E-5;7.6E-7;0;Orbcomm
14.29655557;0.0045743;107.9936;236.2936;180.4234;179.6871;8.235E-5;8.2E-7;0;Orbcomm
14.29655669;0.0045728;107.9937;236.8648;179.9476;180.1673;8.1734E-5;8.0E-7;0;Orbcomm
14.29655973;0.0045689;107.9938;238.293;178.7588;181.3669;8.2333E-5;8.2E-7;0;Orbcomm
14.29656111;0.0045669;107.9938;239.0071;178.1628;181.9684;8.119E-5;7.9E-7;0;Orbcomm
14.2965641;0.0045632;107.994;240.2925;177.0863;183.0547;8.2198E-5;8.1E-7;0;Orbcomm
14.29656574;0.0045611;107.994;241.1493;176.3694;183.7782;8.0861E-5;7.8E-7;0;Orbcomm
14.29656847;0.0045576;107.9942;242.4347;175.2901;184.8673;8.1932E-5;8.1E-7;0;Orbcomm
14.29656965;0.0045555;107.9942;243.006;174.8133;185.3484;8.1698E-5;8.0E-7;0;Orbcomm
14.29657188;0.0045534;107.9943;244.0057;173.9654;186.204;8.1972E-5;8.1E-7;0;Orbcomm
14.29657238;0.0045523;107.9943;244.4342;173.6087;186.5639;8.0763E-5;7.8E-7;0;Orbcomm
14.29657405;0.0045498;107.9944;245.2911;172.8926;187.2864;7.9445E-5;7.4E-7;0;Orbcomm
14.29657606;0.0045467;107.9945;246.2909;172.0481;188.1386;7.8626E-5;7.2E-7;0;Orbcomm
14.29657628;0.0045463;107.9946;246.4337;171.9283;188.2595;7.8702E-5;7.2E-7;0;Orbcomm
14.29657791;0.0045441;107.9946;247.1477;171.3361;188.857;7.9568E-5;7.4E-7;0;Orbcomm
14.29658068;0.0045403;107.9947;248.4331;170.2527;189.95;8.0532E-5;7.7E-7;0;Orbcomm
14.29658449;0.0045341;107.995;250.5755;168.4619;191.7567;7.8156E-5;7.1E-7;0;Orbcomm
14.29658513;0.0045343;107.995;251.0039;168.0999;192.122;7.7034E-5;6.8E-7;0;Orbcomm
14.29658766;0.0045301;107.9952;252.5749;166.769;193.4646;7.3881E-5;6.0E-7;0;Orbcomm
14.29658914;0.004528;107.9952;253.2891;166.1642;194.0747;7.4689E-5;6.2E-7;0;Orbcomm
14.29659122;0.0045239;107.9954;254.5746;165.0739;195.1744;7.315E-5;5.8E-7;0;Orbcomm
14.29659288;0.0045213;107.9955;255.4316;164.361;195.8935;7.3761E-5;5.9E-7;0;Orbcomm
14.29659591;0.0045167;107.9957;257.4312;162.6765;197.5924;7.0352E-5;5.1E-7;0;Orbcomm
14.29659897;0.0045108;107.9959;259.1453;161.213;199.0683;7.0641E-5;5.1E-7;0;Orbcomm
14.29660239;0.0045066;107.996;260.7165;159.8757;200.4169;7.3645E-5;5.9E-7;0;Orbcomm
14.29660345;0.0045043;107.9961;261.2878;159.3936;200.903;7.4268E-5;6.1E-7;0;Orbcomm
14.2966051;0.0045019;107.9961;261.7163;159.0528;201.2466;7.8004E-5;7.0E-7;0;Orbcomm
14.29660837;0.0044995;107.9962;262.7161;158.1972;202.1092;8.5329E-5;8.9E-7;0;Orbcomm
14.29661161;0.0044989;107.9963;263.7161;157.3455;202.968;9.1344E-5;1.05E-6;0;Orbcomm
14.2966133;0.0044958;107.9964;264.8588;156.3723;203.9492;8.5445E-5;9.0E-7;0;Orbcomm
14.29661757;0.0044892;107.9966;266.7157;154.7761;205.5581;8.5717E-5;9.0E-7;0;Orbcomm
14.29661783;0.0044889;107.9966;266.8585;154.6552;205.6799;8.5915E-5;9.1E-7;0;Orbcomm
14.29662068;0.0044856;107.9966;267.7156;153.9452;206.3955;9.0786E-5;1.04E-6;0;Orbcomm
14.29662566;0.0044813;107.9968;269.4296;152.4841;207.8681;9.5483E-5;1.16E-6;0;Orbcomm
14.29662644;0.0044806;107.9968;269.7153;152.2391;208.115;9.5258E-5;1.15E-6;0;Orbcomm
14.29663006;0.0044754;107.997;271.5722;150.6528;209.7135;8.81E-5;9.7E-7;0;Orbcomm
14.29663433;0.0044716;107.997;273.0005;149.4194;210.9563;8.9442E-5;1.0E-6;0;Orbcomm
14.29663677;0.0044702;107.9971;273.7147;148.8031;211.5773;9.4134E-5;1.12E-6;0;Orbcomm
14.29663947;0.0044664;107.9972;275.0002;147.708;212.6804;8.9115E-5;9.9E-7;0;Orbcomm
